SIRION PATHFINDER-2     
1 43759U 18099B   26167.38893504  .00003534  00000+0  19515-3 0  9995
2 43759  97.4251 216.4654 0007234 308.7123  51.3461 15.14542557412507
CORVUS BC4              
1 43767U 18099K   26167.59289607  .00003844  00000+0  22434-3 0  9998
2 43767  97.4064 210.5904 0008264  14.9411 345.2063 15.12492327412310
M2 PATHFINDER           
1 45727U 20037E   26167.58135824  .00001505  00000+0  11137-3 0  9991
2 45727  97.8147 358.8065 0012469 147.8892 212.3096 15.04674460325403
NETSAT-4                
1 46504U 20068U   26167.54147026  .00013826  00000+0  30685-3 0  9990
2 46504  97.8599 175.7304 0003937 341.0276  19.0823 15.43846138315678
NETSAT-3                
1 46505U 20068V   26167.54725060  .00014911  00000+0  34409-3 0  9995
2 46505  97.8646 173.9538 0004289   4.2756 355.8526 15.42658786315583
NETSAT-1                
1 46506U 20068W   26167.54859195  .00010237  00000+0  30749-3 0  9993
2 46506  97.8739 168.2938 0005103  34.5418 325.6154 15.34630247315209
NETSAT-2                
1 46507U 20068X   26167.51769042  .00018134  00000+0  37367-3 0  9999
2 46507  97.8607 175.5965 0003485  29.6023 330.5422 15.45973475315638
GREENCUBE (IO-117)      
1 53109U 22080E   26164.29338770 -.00000003  00000+0  00000+0 0  9990
2 53109  70.1444 299.5995 0008910 290.4576  69.5127  6.42583230 91811
SITRO-AIS 5 (KATYS)     
1 57176U 23091L   26167.54658654  .00010006  00000+0  35226-3 0  9993
2 57176  97.5062 231.4398 0012769 105.4220 254.8432 15.29445041164246
SITRO-AIS 6 (CHIRKIN)   
1 57192U 23091AC  26167.58963271  .00008606  00000+0  33747-3 0  9998
2 57192  97.5068 230.6055 0013107 108.3848 251.8817 15.25925543164190
SITRO-AIS 8 (ANOKHIN)   
1 57193U 23091AD  26167.56473201  .00011744  00000+0  38029-3 0  9991
2 57193  97.5057 233.0442 0011800 101.8615 258.3950 15.32122109164357
SITRO-AIS 7 (FARTUSHNIY)
1 57194U 23091AE  26167.59265965  .00008530  00000+0  33766-3 0  9993
2 57194  97.5065 230.4337 0012953 109.1812 251.0830 15.25613909164184
SITRO-AIS 10 (BURDAEV)  
1 57199U 23091AK  26167.59889688  .00016409  00000+0  43206-3 0  9996
2 57199  97.5083 238.1269 0007541  82.0841 278.1260 15.38592871164675
SITRO-AIS 9 (SHCHUKIN)  
1 57201U 23091AM  26167.56005161  .00015921  00000+0  42600-3 0  9998
2 57201  97.5081 237.8175 0007806  82.2429 277.9701 15.38100576164659
SITRO-AIS 12 (SMIRENNIY)
1 57204U 23091AQ  26167.55079256  .00016620  00000+0  44043-3 0  9996
2 57204  97.5094 238.2748 0007340  77.4926 282.7140 15.38394002164670
SITRO-AIS 11 (SHEFFER)  
1 57208U 23091AU  26167.56438243  .00016152  00000+0  42228-3 0  9999
2 57208  97.5092 238.5349 0007228  77.2850 282.9203 15.38817994164695
SITRO-AIS 25            
1 59066U 24039R   26167.63918354  .00002177  00000+0  17164-3 0  9993
2 59066  95.3908 234.7160 0143534 330.6832  28.6393 14.93511049124645
SITRO-AIS 26            
1 59067U 24039S   26167.57347358  .00002181  00000+0  17273-3 0  9993
2 59067  95.3908 234.5685 0143894 331.5020  27.8390 14.93306771124624
SITRO-AIS 27            
1 59068U 24039T   26167.61088164  .00002401  00000+0  18825-3 0  9995
2 59068  95.3915 234.8656 0142824 330.0213  29.2888 14.93728996124652
SITRO-AIS 28            
1 59071U 24039U   26167.58833862  .00002576  00000+0  20164-3 0  9990
2 59071  95.3912 234.8974 0142744 329.8979  29.4097 14.93760697124650
GRBBETA                 
1 60237U 24128C   26167.48999034  .00002613  00000+0  18678-3 0  9997
2 60237  61.9885 218.7125 0040741 134.5189 225.9245 15.06635687106160
OOV-CUBE (TUBSAT-30)    
1 60240U 24128F   26167.52316055  .00001560  00000+0  12948-3 0  9996
2 60240  61.9942 227.8889 0044672 133.5765 226.9049 15.02772018106015
ROBUSTA-3A (MEDITERRAN*)
1 60243U 24128J   26167.53952736  .00004185  00000+0  25298-3 0  9990
2 60243  61.9848 210.5351 0041453 127.8919 232.5937 15.11670822106320
LASARSAT                
1 62391U 24247Q   26167.00723506  .00026291  00000+0  52618-3 0  9999
2 62391  44.9746 268.8456 0008258 324.3459  35.6879 15.46313452 83136
CROCUBE                 
1 62394U 24247T   26165.58698051  .00034757  00000+0  65094-3 0  9997
2 62394  44.9722 274.1999 0008187 320.7516  39.2780 15.48102542 82947
FORESAIL-1 PRIME        
1 66778U 25276DS  26167.46946245  .00004221  00000+0  20671-3 0  9995
2 66778  97.4203 240.7534 0003926 105.2468 254.9201 15.18697019 30296
KNACKSAT-2              
1 67683U 98067XZ  26167.64582773  .00039403  00000+0  48230-3 0  9992
2 67683  51.6312 297.1999 0009189 212.7793 147.2631 15.59934910 20196
