OBJECT_NAME,OBJECT_ID,EPOCH,MEAN_MOTION,ECCENTRICITY,INCLINATION,RA_OF_ASC_NODE,ARG_OF_PERICENTER,MEAN_ANOMALY,EPHEMERIS_TYPE,CLASSIFICATION_TYPE,NORAD_CAT_ID,ELEMENT_SET_NO,REV_AT_EPOCH,BSTAR,MEAN_MOTION_DOT,MEAN_MOTION_DDOT
SIRION PATHFINDER-2,2018-099B,2026-06-16T09:20:03.987456,15.14542557,.00072346,97.4251,216.4654,308.7123,51.3461,0,U,43759,999,41250,.19514958E-3,.3534E-4,0
CORVUS BC4,2018-099K,2026-06-16T14:13:46.220448,15.12492327,.00082645,97.4064,210.5904,14.9411,345.2063,0,U,43767,999,41231,.22433633E-3,.3844E-4,0
M2 PATHFINDER,2020-037E,2026-06-16T13:57:09.351936,15.04674460,.00124695,97.8147,358.8065,147.8892,212.3096,0,U,45727,999,32540,.1113712E-3,.1505E-4,0
NETSAT-4,2020-068U,2026-06-16T12:59:43.030464,15.43846138,.00039374,97.8599,175.7304,341.0276,19.0823,0,U,46504,999,31567,.30684528E-3,.13826E-3,0
NETSAT-3,2020-068V,2026-06-16T13:08:02.451840,15.42658786,.00042895,97.8646,173.9538,4.2756,355.8526,0,U,46505,999,31558,.34409132E-3,.14911E-3,0
NETSAT-1,2020-068W,2026-06-16T13:09:58.344480,15.34630247,.00051038,97.8739,168.2938,34.5418,325.6154,0,U,46506,999,31520,.3074901E-3,.10237E-3,0
NETSAT-2,2020-068X,2026-06-16T12:25:28.452288,15.45973475,.00034857,97.8607,175.5965,29.6023,330.5422,0,U,46507,999,31563,.37366885E-3,.18134E-3,0
GREENCUBE (IO-117),2022-080E,2026-06-13T07:02:28.697280,6.42583230,.00089108,70.1444,299.5995,290.4576,69.5127,0,U,53109,999,9181,0,-.3E-7,0
SITRO-AIS 5 (KATYS),2023-091L,2026-06-16T13:07:05.077056,15.29445041,.00127697,97.5062,231.4398,105.4220,254.8432,0,U,57176,999,16424,.35226344E-3,.10006E-3,0
SITRO-AIS 6 (CHIRKIN),2023-091AC,2026-06-16T14:09:04.266144,15.25925543,.0013107,97.5068,230.6055,108.3848,251.8817,0,U,57192,999,16419,.33746583E-3,.8606E-4,0
SITRO-AIS 8 (ANOKHIN),2023-091AD,2026-06-16T13:33:12.845664,15.32122109,.00118007,97.5057,233.0442,101.8615,258.3950,0,U,57193,999,16435,.38028565E-3,.11744E-3,0
SITRO-AIS 7 (FARTUSHNIY),2023-091AE,2026-06-16T14:13:25.793760,15.25613909,.00129534,97.5065,230.4337,109.1812,251.0830,0,U,57194,999,16418,.33765703E-3,.853E-4,0
SITRO-AIS 10 (BURDAEV),2023-091AK,2026-06-16T14:22:24.690432,15.38592871,.00075414,97.5083,238.1269,82.0841,278.1260,0,U,57199,999,16467,.43205615E-3,.16409E-3,0
SITRO-AIS 9 (SHCHUKIN),2023-091AM,2026-06-16T13:26:28.459104,15.38100576,.00078068,97.5081,237.8175,82.2429,277.9701,0,U,57201,999,16465,.42599937E-3,.15921E-3,0
SITRO-AIS 12 (SMIRENNIY),2023-091AQ,2026-06-16T13:13:08.477184,15.38394002,.00073408,97.5094,238.2748,77.4926,282.7140,0,U,57204,999,16467,.44042725E-3,.1662E-3,0
SITRO-AIS 11 (SHEFFER),2023-091AU,2026-06-16T13:32:42.641952,15.38817994,.00072284,97.5092,238.5349,77.2850,282.9203,0,U,57208,999,16469,.4222779E-3,.16152E-3,0
SITRO-AIS 25,2024-039R,2026-06-16T15:20:25.457856,14.93511049,.01435345,95.3908,234.7160,330.6832,28.6393,0,U,59066,999,12464,.1716447E-3,.2177E-4,0
SITRO-AIS 26,2024-039S,2026-06-16T13:45:48.117312,14.93306771,.01438946,95.3908,234.5685,331.5020,27.8390,0,U,59067,999,12462,.17273029E-3,.2181E-4,0
SITRO-AIS 27,2024-039T,2026-06-16T14:39:40.173696,14.93728996,.01428247,95.3915,234.8656,330.0213,29.2888,0,U,59068,999,12465,.18825496E-3,.2401E-4,0
SITRO-AIS 28,2024-039U,2026-06-16T14:07:12.456768,14.93760697,.01427441,95.3912,234.8974,329.8979,29.4097,0,U,59071,999,12465,.20164147E-3,.2576E-4,0
GRBBETA,2024-128C,2026-06-16T11:45:35.165376,15.06635687,.00407414,61.9885,218.7125,134.5189,225.9245,0,U,60237,999,10616,.18677717E-3,.2613E-4,0
OOV-CUBE (TUBSAT-30),2024-128F,2026-06-16T12:33:21.071520,15.02772018,.00446722,61.9942,227.8889,133.5765,226.9049,0,U,60240,999,10601,.12947885E-3,.156E-4,0
ROBUSTA-3A (MEDITERRANEE),2024-128J,2026-06-16T12:56:55.163904,15.11670822,.00414536,61.9848,210.5351,127.8919,232.5937,0,U,60243,999,10632,.25298368E-3,.4185E-4,0
LASARSAT,2024-247Q,2026-06-16T00:10:25.109184,15.46313452,.00082583,44.9746,268.8456,324.3459,35.6879,0,U,62391,999,8313,.52617793E-3,.26291E-3,0
CROCUBE,2024-247T,2026-06-14T14:05:15.116064,15.48102542,.0008187,44.9722,274.1999,320.7516,39.2780,0,U,62394,999,8294,.65094E-3,.34757E-3,0
FORESAIL-1 PRIME,2025-276DS,2026-06-16T11:16:01.555680,15.18697019,.00039267,97.4203,240.7534,105.2468,254.9201,0,U,66778,999,3029,.20671235E-3,.4221E-4,0
KNACKSAT-2,1998-067XZ,2026-06-16T15:29:59.515872,15.59934910,.00091894,51.6312,297.1999,212.7793,147.2631,0,U,67683,999,2019,.48230159E-3,.39403E-3,0
